YAOGAN-30 06C           
1 44451U 19045C   26068.85043463  .00004352  00000+0  32596-3 0  9993
2 44451  34.9925 214.7382 0001081 261.6749  98.3837 15.02172666361604
STARLINK-6333           
1 56521U 23065U   26067.45250080 -.00001117  00000+0 -67622-4 0  9998
2 56521  43.0010 216.6235 0001020 276.0930  83.9796 15.02536703156448
